start=new Date('2023-05-07T00:00:00.000Z').valueOf();
sats=[{"SITE":"AFETR","PERIOD":"95.593","EPHEMERIS_TYPE":"0","OBJECT_TYPE":"PAYLOAD","CLASSIFICATION_TYPE":"U","MEAN_ELEMENT_THEORY":"SGP4","OBJECT_NAME":"STARLINK-1162","MEAN_MOTION":"15.06389611","EPOCH":"2023-05-06T16:13:49.009152","OBJECT_ID":"2020-006Q","MEAN_ANOMALY":"294.2499","BSTAR":"0.00146600000000","SEMIMAJOR_AXIS":"6925.380","LAUNCH_DATE":"2020-01-29","RA_OF_ASC_NODE":"266.4367","RCS_SIZE":"LARGE","APOAPSIS":"548.057","DECAY_DATE":null,"ARG_OF_PERICENTER":"65.8613","PERIAPSIS":"546.434","CENTER_NAME":"EARTH","TLE_LINE2":"2 45058  53.0533 266.4367 0001172  65.8613 294.2499 15.06389611180016","TLE_LINE1":"1 45058U 20006Q   23126.67626168  .00021616  00000-0  14660-2 0  9991","TIME_SYSTEM":"UTC","REF_FRAME":"TEME","REV_AT_EPOCH":"18001","MEAN_MOTION_DDOT":"0.0000000000000","FILE":"3902298","NORAD_CAT_ID":"45058","ECCENTRICITY":"0.00011720","INCLINATION":"53.0533","MEAN_MOTION_DOT":"0.00021616","ELEMENT_SET_NO":"999","COUNTRY_CODE":"US","GP_ID":"231349287"},{"CLASSIFICATION_TYPE":"U","EPHEMERIS_TYPE":"0","OBJECT_TYPE":"PAYLOAD","MEAN_ELEMENT_THEORY":"SGP4","MEAN_MOTION":"15.06384685","OBJECT_NAME":"STARLINK-1165","EPOCH":"2023-05-06T13:34:35.285088","PERIOD":"95.593","SITE":"AFETR","DECAY_DATE":null,"RCS_SIZE":"LARGE","RA_OF_ASC_NODE":"266.9358","APOAPSIS":"547.859","MEAN_ANOMALY":"287.3999","OBJECT_ID":"2020-006R","LAUNCH_DATE":"2020-01-29","SEMIMAJOR_AXIS":"6925.395","BSTAR":"0.00158120000000","REF_FRAME":"TEME","REV_AT_EPOCH":"17999","TLE_LINE1":"1 45059U 20006R   23126.56568617  .00023339  00000-0  15812-2 0  9998","TIME_SYSTEM":"UTC","FILE":"3902298","MEAN_MOTION_DDOT":"0.0000000000000","ARG_OF_PERICENTER":"72.7085","PERIAPSIS":"546.662","TLE_LINE2":"2 45059  53.0538 266.9358 0000864  72.7085 287.3999 15.06384685179993","CENTER_NAME":"EARTH","ELEMENT_SET_NO":"999","GP_ID":"231347544","COUNTRY_CODE":"US","MEAN_MOTION_DOT":"0.00023339","ECCENTRICITY":"0.00008640","NORAD_CAT_ID":"45059","INCLINATION":"53.0538"},{"ECCENTRICITY":"0.00008940","NORAD_CAT_ID":"45060","INCLINATION":"53.0540","MEAN_MOTION_DOT":"0.00021310","ELEMENT_SET_NO":"999","COUNTRY_CODE":"US","GP_ID":"231347794","PERIAPSIS":"546.653","ARG_OF_PERICENTER":"69.9519","CENTER_NAME":"EARTH","TLE_LINE2":"2 45060  53.0540 266.9522 0000894  69.9519 290.1566 15.06381050179999","TLE_LINE1":"1 45060U 20006S   23126.56198893  .00021310  00000-0  14459-2 0  9998","TIME_SYSTEM":"UTC","REF_FRAME":"TEME","REV_AT_EPOCH":"17999","MEAN_MOTION_DDOT":"0.0000000000000","FILE":"3902298","OBJECT_ID":"2020-006S","MEAN_ANOMALY":"290.1566","BSTAR":"0.00144590000000","LAUNCH_DATE":"2020-01-29","SEMIMAJOR_AXIS":"6925.407","RA_OF_ASC_NODE":"266.9522","RCS_SIZE":"LARGE","APOAPSIS":"547.891","DECAY_DATE":null,"SITE":"AFETR","PERIOD":"95.593","EPHEMERIS_TYPE":"0","OBJECT_TYPE":"PAYLOAD","CLASSIFICATION_TYPE":"U","OBJECT_NAME":"STARLINK-1166","MEAN_MOTION":"15.06381050","MEAN_ELEMENT_THEORY":"SGP4","EPOCH":"2023-05-06T13:29:15.843552"},{"SITE":"AFETR","PERIOD":"95.593","EPOCH":"2023-05-06T15:15:25.842528","MEAN_MOTION":"15.06381554","OBJECT_NAME":"STARLINK-1169","MEAN_ELEMENT_THEORY":"SGP4","OBJECT_TYPE":"PAYLOAD","EPHEMERIS_TYPE":"0","CLASSIFICATION_TYPE":"U","BSTAR":"0.00174050000000","SEMIMAJOR_AXIS":"6925.405","LAUNCH_DATE":"2020-01-29","OBJECT_ID":"2020-006T","MEAN_ANOMALY":"308.3241","APOAPSIS":"547.677","RCS_SIZE":"LARGE","RA_OF_ASC_NODE":"266.6236","DECAY_DATE":null,"TLE_LINE2":"2 45061  53.0536 266.6236 0000587  51.7800 308.3241 15.06381554180000","CENTER_NAME":"EARTH","PERIAPSIS":"546.864","ARG_OF_PERICENTER":"51.7800","MEAN_MOTION_DDOT":"0.0000000000000","FILE":"3902298","TIME_SYSTEM":"UTC","TLE_LINE1":"1 45061U 20006T   23126.63571577  .00025725  00000-0  17405-2 0  9999","REV_AT_EPOCH":"18000","REF_FRAME":"TEME","INCLINATION":"53.0536","ECCENTRICITY":"0.00005870","NORAD_CAT_ID":"45061","MEAN_MOTION_DOT":"0.00025725","COUNTRY_CODE":"US","GP_ID":"231348546","ELEMENT_SET_NO":"999"},{"FILE":"3902298","MEAN_MOTION_DDOT":"0.0000000000000","REV_AT_EPOCH":"17999","REF_FRAME":"TEME","TIME_SYSTEM":"UTC","TLE_LINE1":"1 45062U 20006U   23126.55462564  .00008446  00000-0  58522-3 0  9993","CENTER_NAME":"EARTH","TLE_LINE2":"2 45062  53.0541 266.9845 0000873 106.6142 253.4943 15.06401416179998","PERIAPSIS":"546.605","ARG_OF_PERICENTER":"106.6142","GP_ID":"231348788","COUNTRY_CODE":"US","ELEMENT_SET_NO":"999","MEAN_MOTION_DOT":"0.00008446","INCLINATION":"53.0541","NORAD_CAT_ID":"45062","ECCENTRICITY":"0.00008730","EPOCH":"2023-05-06T13:18:39.655296","OBJECT_NAME":"STARLINK-1171","MEAN_ELEMENT_THEORY":"SGP4","MEAN_MOTION":"15.06401416","CLASSIFICATION_TYPE":"U","OBJECT_TYPE":"PAYLOAD","EPHEMERIS_TYPE":"0","PERIOD":"95.592","SITE":"AFETR","DECAY_DATE":null,"APOAPSIS":"547.814","RCS_SIZE":"LARGE","RA_OF_ASC_NODE":"266.9845","SEMIMAJOR_AXIS":"6925.344","LAUNCH_DATE":"2020-01-29","BSTAR":"0.00058522000000","MEAN_ANOMALY":"253.4943","OBJECT_ID":"2020-006U"},{"OBJECT_ID":"2020-006W","MEAN_ANOMALY":"286.7127","BSTAR":"0.00075044000000","LAUNCH_DATE":"2020-01-29","SEMIMAJOR_AXIS":"6925.318","RCS_SIZE":"LARGE","RA_OF_ASC_NODE":"246.9283","APOAPSIS":"548.117","DECAY_DATE":null,"PERIOD":"95.592","SITE":"AFETR","EPHEMERIS_TYPE":"0","OBJECT_TYPE":"PAYLOAD","CLASSIFICATION_TYPE":"U","MEAN_MOTION":"15.06410030","MEAN_ELEMENT_THEORY":"SGP4","OBJECT_NAME":"STARLINK-1133","EPOCH":"2023-05-06T13:37:15.103488","NORAD_CAT_ID":"45064","ECCENTRICITY":"0.00013490","INCLINATION":"53.0548","MEAN_MOTION_DOT":"0.00010917","ELEMENT_SET_NO":"999","COUNTRY_CODE":"US","GP_ID":"231348045","PERIAPSIS":"546.249","ARG_OF_PERICENTER":"73.4010","TLE_LINE2":"2 45064  53.0548 246.9283 0001349  73.4010 286.7127 15.06410030180273","CENTER_NAME":"EARTH","TLE_LINE1":"1 45064U 20006W   23126.56753592  .00010917  00000-0  75044-3 0  9994","TIME_SYSTEM":"UTC","REF_FRAME":"TEME","REV_AT_EPOCH":"18027","MEAN_MOTION_DDOT":"0.0000000000000","FILE":"3902298"},{"PERIOD":"95.479","SITE":"AFETR","EPOCH":"2023-05-06T13:14:54.706848","MEAN_ELEMENT_THEORY":"SGP4","OBJECT_NAME":"STARLINK-1139","MEAN_MOTION":"15.08180716","CLASSIFICATION_TYPE":"U","OBJECT_TYPE":"PAYLOAD","EPHEMERIS_TYPE":"0","SEMIMAJOR_AXIS":"6919.896","LAUNCH_DATE":"2020-01-29","BSTAR":"0.00270510000000","MEAN_ANOMALY":"14.0681","OBJECT_ID":"2020-006X","DECAY_DATE":null,"APOAPSIS":"542.953","RCS_SIZE":"LARGE","RA_OF_ASC_NODE":"246.7935","CENTER_NAME":"EARTH","TLE_LINE2":"2 45065  53.0535 246.7935 0001722 346.0261  14.0681 15.08180716180278","PERIAPSIS":"540.570","ARG_OF_PERICENTER":"346.0261","FILE":"3902298","MEAN_MOTION_DDOT":"0.0000000000000","REV_AT_EPOCH":"18027","REF_FRAME":"TEME","TIME_SYSTEM":"UTC","TLE_LINE1":"1 45065U 20006X   23126.55202207  .00042255  00000-0  27051-2 0  9990","MEAN_MOTION_DOT":"0.00042255","INCLINATION":"53.0535","ECCENTRICITY":"0.00017220","NORAD_CAT_ID":"45065","GP_ID":"231348295","COUNTRY_CODE":"US","ELEMENT_SET_NO":"999"},{"PERIOD":"95.593","SITE":"AFETR","CLASSIFICATION_TYPE":"U","OBJECT_TYPE":"PAYLOAD","EPHEMERIS_TYPE":"0","EPOCH":"2023-05-06T13:05:23.335008","MEAN_ELEMENT_THEORY":"SGP4","OBJECT_NAME":"STARLINK-1145","MEAN_MOTION":"15.06387671","MEAN_ANOMALY":"296.9946","OBJECT_ID":"2020-006Y","SEMIMAJOR_AXIS":"6925.386","LAUNCH_DATE":"2020-01-29","BSTAR":"0.00216120000000","DECAY_DATE":null,"APOAPSIS":"547.940","RA_OF_ASC_NODE":"247.0254","RCS_SIZE":"LARGE","PERIAPSIS":"546.563","ARG_OF_PERICENTER":"63.1144","TLE_LINE2":"2 45066  53.0536 247.0254 0000994  63.1144 296.9946 15.06387671180266","CENTER_NAME":"EARTH","REV_AT_EPOCH":"18026","REF_FRAME":"TEME","TIME_SYSTEM":"UTC","TLE_LINE1":"1 45066U 20006Y   23126.54540897  .00032046  00000-0  21612-2 0  9994","FILE":"3902298","MEAN_MOTION_DDOT":"0.0000000000000","MEAN_MOTION_DOT":"0.00032046","INCLINATION":"53.0536","ECCENTRICITY":"0.00009940","NORAD_CAT_ID":"45066","ELEMENT_SET_NO":"999","GP_ID":"231349046","COUNTRY_CODE":"US"},{"ELEMENT_SET_NO":"999","GP_ID":"231349288","COUNTRY_CODE":"US","MEAN_MOTION_DOT":"0.00034248","NORAD_CAT_ID":"45067","ECCENTRICITY":"0.00009060","INCLINATION":"53.0538","REF_FRAME":"TEME","REV_AT_EPOCH":"18027","TLE_LINE1":"1 45067U 20006Z   23126.56015961  .00034248  00000-0  23069-2 0  9990","TIME_SYSTEM":"UTC","FILE":"3902298","MEAN_MOTION_DDOT":"0.0000000000000","ARG_OF_PERICENTER":"66.1059","PERIAPSIS":"546.582","CENTER_NAME":"EARTH","TLE_LINE2":"2 45067  53.0538 246.9585 0000906  66.1059 294.0025 15.06401389180276","DECAY_DATE":null,"RA_OF_ASC_NODE":"246.9585","RCS_SIZE":"LARGE","APOAPSIS":"547.837","MEAN_ANOMALY":"294.0025","OBJECT_ID":"2020-006Z","LAUNCH_DATE":"2020-01-29","SEMIMAJOR_AXIS":"6925.344","BSTAR":"0.00230690000000","CLASSIFICATION_TYPE":"U","EPHEMERIS_TYPE":"0","OBJECT_TYPE":"PAYLOAD","OBJECT_NAME":"STARLINK-1150","MEAN_ELEMENT_THEORY":"SGP4","MEAN_MOTION":"15.06401389","EPOCH":"2023-05-06T13:26:37.790304","SITE":"AFETR","PERIOD":"95.592"},{"SITE":"AFETR","PERIOD":"95.592","CLASSIFICATION_TYPE":"U","EPHEMERIS_TYPE":"0","OBJECT_TYPE":"PAYLOAD","OBJECT_NAME":"STARLINK-1161","MEAN_MOTION":"15.06406741","MEAN_ELEMENT_THEORY":"SGP4","EPOCH":"2023-05-06T14:23:37.544640","MEAN_ANOMALY":"272.6423","OBJECT_ID":"2020-006AA","SEMIMAJOR_AXIS":"6925.328","LAUNCH_DATE":"2020-01-29","BSTAR":"0.00013586000000","DECAY_DATE":null,"RA_OF_ASC_NODE":"246.6469","RCS_SIZE":"LARGE","APOAPSIS":"548.176","ARG_OF_PERICENTER":"87.4729","PERIAPSIS":"546.210","CENTER_NAME":"EARTH","TLE_LINE2":"2 45068  53.0536 246.6469 0001419  87.4729 272.6423 15.06406741180274","REF_FRAME":"TEME","REV_AT_EPOCH":"18027","TLE_LINE1":"1 45068U 20006AA  23126.59974010  .00001743  00000-0  13586-3 0  9991","TIME_SYSTEM":"UTC","FILE":"3902298","MEAN_MOTION_DDOT":"0.0000000000000","MEAN_MOTION_DOT":"0.00001743","ECCENTRICITY":"0.00014190","NORAD_CAT_ID":"45068","INCLINATION":"53.0536","ELEMENT_SET_NO":"999","GP_ID":"231347545","COUNTRY_CODE":"US"}];
